{
    "links": {
        "self": "http://www.neowsapp.com/rest/v1/neo/54054363?api_key=iIulBulltgU6a56xZRHN4H3l9WmuAYTsLGpBGhQ2"
    },
    "id": "54054363",
    "neo_reference_id": "54054363",
    "name": "(2020 RT7)",
    "designation": "2020 RT7",
    "nasa_jpl_url": "http://ssd.jpl.nasa.gov/sbdb.cgi?sstr=54054363",
    "absolute_magnitude_h": 21.773,
    "estimated_diameter": {
        "kilometers": {
            "estimated_diameter_min": 0.1174775759,
            "estimated_diameter_max": 0.2626878456
        },
        "meters": {
            "estimated_diameter_min": 117.4775759395,
            "estimated_diameter_max": 262.6878456327
        },
        "miles": {
            "estimated_diameter_min": 0.0729971588,
            "estimated_diameter_max": 0.1632266093
        },
        "feet": {
            "estimated_diameter_min": 385.4251302454,
            "estimated_diameter_max": 861.8367914655
        }
    },
    "is_potentially_hazardous_asteroid": false,
    "close_approach_data": [
        {
            "close_approach_date": "2020-08-28",
            "close_approach_date_full": "2020-Aug-28 20:49",
            "epoch_date_close_approach": 1598647740000,
            "relative_velocity": {
                "kilometers_per_second": "29.5499863309",
                "kilometers_per_hour": "106379.9507913077",
                "miles_per_hour": "66100.3644236323"
            },
            "miss_distance": {
                "astronomical": "0.0972880762",
                "lunar": "37.8450616418",
                "kilometers": "14554088.975917694",
                "miles": "9043491.5373604172"
            },
            "orbiting_body": "Mars"
        },
        {
            "close_approach_date": "2020-09-22",
            "close_approach_date_full": "2020-Sep-22 07:22",
            "epoch_date_close_approach": 1600759320000,
            "relative_velocity": {
                "kilometers_per_second": "34.2182245247",
                "kilometers_per_hour": "123185.6082887821",
                "miles_per_hour": "76542.7464392158"
            },
            "miss_distance": {
                "astronomical": "0.0881437675",
                "lunar": "34.2879255575",
                "kilometers": "13186119.871775225",
                "miles": "8193474.951839105"
            },
            "orbiting_body": "Earth"
        }
    ],
    "orbital_data": {
        "orbit_id": "2",
        "orbit_determination_date": "2020-09-20 06:39:33",
        "first_observation_date": "2020-09-14",
        "last_observation_date": "2020-09-19",
        "data_arc_in_days": 5,
        "observations_used": 31,
        "orbit_uncertainty": "9",
        "minimum_orbit_intersection": ".0878708",
        "jupiter_tisserand_invariant": "2.569",
        "epoch_osculation": "2459107.5",
        "eccentricity": ".9204360135832825",
        "semi_major_axis": "2.558946884197661",
        "inclination": "12.12252781491362",
        "ascending_node_longitude": "155.1700113785392",
        "orbital_period": "1495.169171746239",
        "perihelion_distance": ".2036000151354042",
        "perihelion_argument": "336.2146159184657",
        "aphelion_distance": "4.914293753259919",
        "perihelion_time": "2459152.902894943781",
        "mean_anomaly": "349.0680984542562",
        "mean_motion": ".240775429832832",
        "equinox": "J2000",
        "orbit_class": {
            "orbit_class_type": "APO",
            "orbit_class_description": "Near-Earth asteroid orbits which cross the Earth’s orbit similar to that of 1862 Apollo",
            "orbit_class_range": "a (semi-major axis) > 1.0 AU; q (perihelion) < 1.017 AU"
        }
    },
    "is_sentry_object": false
}